{"type": "FeatureCollection", "features": [ {"type": "Feature", "properties": {"norad_id": 66998, "name": "2025-292F", "group": "last-30-days", "lat": 77.3035103505226, "lon": -77.63247825082436, "alt_km": 553.6333159219093, "timestamp": "2025-12-19T04:59:47.033428+00:00", "meta": {"OBJECT_NAME": "2025-292F", "OBJECT_ID": "2025-292F", "EPOCH": "2025-12-18T22:10:07.730112", "MEAN_MOTION": 15.04888231, "ECCENTRICITY": 0.00145808, "INCLINATION": 97.6564, "RA_OF_ASC_NODE": 65.4233, "ARG_OF_PERICENTER": 254.6764, "MEAN_ANOMALY": 105.2851, "EPHEMERIS_TYPE": 0, "CLASSIFICATION_TYPE": "U", "NORAD_CAT_ID": 66998, "ELEMENT_SET_NO": 999, "REV_AT_EPOCH": 132, "BSTAR": 0.00029795477, "MEAN_MOTION_DOT": 4.162e-05, "MEAN_MOTION_DDOT": 0}, "tle": {"line1": "1 66998U 25292F   25352.92370058  .00004162  00000+0  29795-3 0  9996", "line2": "2 66998  97.6564  65.4233 0014580 254.6764 105.2851 15.04888231  1320"}}, "geometry": {"type": "Point", "coordinates": [-77.63247825082436, 77.3035103505226]}}, {"type": "Feature", "properties": {"norad_id": 66999, "name": "2025-292G", "group": "last-30-days", "lat": 75.60783601385602, "lon": -82.67233852586916, "alt_km": 553.2376329967356, "timestamp": "2025-12-19T04:59:47.033440+00:00", "meta": {"OBJECT_NAME": "2025-292G", "OBJECT_ID": "2025-292G", "EPOCH": "2025-12-18T22:09:35.990208", "MEAN_MOTION": 15.04952095, "ECCENTRICITY": 0.0014097, "INCLINATION": 97.6573, "RA_OF_ASC_NODE": 65.4246, "ARG_OF_PERICENTER": 256.814, "MEAN_ANOMALY": 103.1513, "EPHEMERIS_TYPE": 0, "CLASSIFICATION_TYPE": "U", "NORAD_CAT_ID": 66999, "ELEMENT_SET_NO": 999, "REV_AT_EPOCH": 132, "BSTAR": 0.00030151003, "MEAN_MOTION_DOT": 4.219e-05, "MEAN_MOTION_DDOT": 0}, "tle": {"line1": "1 66999U 25292G   25352.92333322  .00004219  00000+0  30151-3 0  9991", "line2": "2 66999  97.6573  65.4246 0014097 256.8140 103.1513 15.04952095  1322"}}, "geometry": {"type": "Point", "coordinates": [-82.67233852586916, 75.60783601385602]}}, {"type": "Feature", "properties": {"norad_id": 67000, "name": "2025-292H", "group": "last-30-days", "lat": 75.60299014743848, "lon": -82.68267239924835, "alt_km": 553.2259395872261, "timestamp": "2025-12-19T04:59:47.033450+00:00", "meta": {"OBJECT_NAME": "2025-292H", "OBJECT_ID": "2025-292H", "EPOCH": "2025-12-17T15:50:27.314304", "MEAN_MOTION": 15.04941506, "ECCENTRICITY": 0.00140318, "INCLINATION": 97.6577, "RA_OF_ASC_NODE": 64.1722, "ARG_OF_PERICENTER": 261.5567, "MEAN_ANOMALY": 98.4069, "EPHEMERIS_TYPE": 0, "CLASSIFICATION_TYPE": "U", "NORAD_CAT_ID": 67000, "ELEMENT_SET_NO": 999, "REV_AT_EPOCH": 100, "BSTAR": 0.00033244641, "MEAN_MOTION_DOT": 4.658e-05, "MEAN_MOTION_DDOT": 0}, "tle": {"line1": "1 67000U 25292H   25351.66003836  .00004658  00000+0  33245-3 0  9993", "line2": "2 67000  97.6577  64.1722 0014031 261.5567  98.4069 15.04941506  1001"}}, "geometry": {"type": "Point", "coordinates": [-82.68267239924835, 75.60299014743848]}}, {"type": "Feature", "properties": {"norad_id": 67001, "name": "2025-292J", "group": "last-30-days", "lat": 79.77211923947354, "lon": 17.489514605400586, "alt_km": 555.4498062748362, "timestamp": "2025-12-19T04:59:47.033461+00:00", "meta": {"OBJECT_NAME": "2025-292J", "OBJECT_ID": "2025-292J", "EPOCH": "2025-12-18T22:14:29.844384", "MEAN_MOTION": 15.04367356, "ECCENTRICITY": 0.00142916, "INCLINATION": 97.6565, "RA_OF_ASC_NODE": 65.4193, "ARG_OF_PERICENTER": 245.44, "MEAN_ANOMALY": 114.5337, "EPHEMERIS_TYPE": 0, "CLASSIFICATION_TYPE": "U", "NORAD_CAT_ID": 67001, "ELEMENT_SET_NO": 999, "REV_AT_EPOCH": 132, "BSTAR": 0.00031517378, "MEAN_MOTION_DOT": 4.345e-05, "MEAN_MOTION_DDOT": 0}, "tle": {"line1": "1 67001U 25292J   25352.92673431  .00004345  00000+0  31517-3 0  9991", "line2": "2 67001  97.6565  65.4193 0014291 245.4400 114.5337 15.04367356  1328"}}, "geometry": {"type": "Point", "coordinates": [17.489514605400586, 79.77211923947354]}}, {"type": "Feature", "properties": {"norad_id": 67002, "name": "ZK-1A R/B", "group": "last-30-days", "lat": -68.27364430548266, "lon": 86.42568307501338, "alt_km": 313.47986091206803, "timestamp": "2025-12-19T04:59:47.033493+00:00", "meta": {"OBJECT_NAME": "ZK-1A R/B", "OBJECT_ID": "2025-292K", "EPOCH": "2025-12-18T18:29:03.183072", "MEAN_MOTION": 15.5652268, "ECCENTRICITY": 0.02131464, "INCLINATION": 97.7231, "RA_OF_ASC_NODE": 66.0394, "ARG_OF_PERICENTER": 343.7647, "MEAN_ANOMALY": 15.6846, "EPHEMERIS_TYPE": 0, "CLASSIFICATION_TYPE": "U", "NORAD_CAT_ID": 67002, "ELEMENT_SET_NO": 999, "REV_AT_EPOCH": 133, "BSTAR": 0.0007097127, "MEAN_MOTION_DOT": 0.00147822, "MEAN_MOTION_DDOT": 7.93125e-06}, "tle": {"line1": "1 67002U 25292K   25352.77017573  .00147822  79312-5  70971-3 0  9997", "line2": "2 67002  97.7231  66.0394 0213146 343.7647  15.6846 15.56522680  1332"}}, "geometry": {"type": "Point", "coordinates": [86.42568307501338, -68.27364430548266]}}, {"type": "Feature", "properties": {"norad_id": 67003, "name": "STARLINK-35660", "group": "last-30-days", "lat": -8.001688089047356, "lon": -57.91257055457951, "alt_km": 293.9295373313089, "timestamp": "2025-12-19T04:59:47.033505+00:00", "meta": {"OBJECT_NAME": "STARLINK-35660", "OBJECT_ID": "2025-293A", "EPOCH": "2025-12-18T22:00:00.999936", "MEAN_MOTION": 15.94831556, "ECCENTRICITY": 0.0003912, "INCLINATION": 69.9949, "RA_OF_ASC_NODE": 305.8727, "ARG_OF_PERICENTER": 266.8392, "MEAN_ANOMALY": 211.9295, "EPHEMERIS_TYPE": 0, "CLASSIFICATION_TYPE": "U", "NORAD_CAT_ID": 67003, "ELEMENT_SET_NO": 999, "REV_AT_EPOCH": 130, "BSTAR": -0.0029098496, "MEAN_MOTION_DOT": -0.01119533, "MEAN_MOTION_DDOT": 0.00038317166}, "tle": {"line1": "1 67003U 25293A   25352.91667824 -.01119533  38317-3 -29098-2 0  9997", "line2": "2 67003  69.9949 305.8727 0003912 266.8392 211.9295 15.94831556  1307"}}, "geometry": {"type": "Point", "coordinates": [-57.91257055457951, -8.001688089047356]}}, {"type": "Feature", "properties": {"norad_id": 67004, "name": "STARLINK-35913", "group": "last-30-days", "lat": -6.229018365925844, "lon": -57.25814750319297, "alt_km": 293.7115148161929, "timestamp": "2025-12-19T04:59:47.033516+00:00", "meta": {"OBJECT_NAME": "STARLINK-35913", "OBJECT_ID": "2025-293B", "EPOCH": "2025-12-18T22:00:00.999936", "MEAN_MOTION": 15.94888754, "ECCENTRICITY": 0.00038627, "INCLINATION": 69.9951, "RA_OF_ASC_NODE": 305.8705, "ARG_OF_PERICENTER": 265.7035, "MEAN_ANOMALY": 214.896, "EPHEMERIS_TYPE": 0, "CLASSIFICATION_TYPE": "U", "NORAD_CAT_ID": 67004, "ELEMENT_SET_NO": 999, "REV_AT_EPOCH": 130, "BSTAR": -0.002914419, "MEAN_MOTION_DOT": -0.01124648, "MEAN_MOTION_DDOT": 0.00038663684}, "tle": {"line1": "1 67004U 25293B   25352.91667824 -.01124648  38664-3 -29144-2 0  9998", "line2": "2 67004  69.9951 305.8705 0003862 265.7035 214.8960 15.94888754  1306"}}, "geometry": {"type": "Point", "coordinates": [-57.25814750319297, -6.229018365925844]}}, {"type": "Feature", "properties": {"norad_id": 67005, "name": "STARLINK-36148", "group": "last-30-days", "lat": -4.341936919812826, "lon": -56.565023109231085, "alt_km": 293.3097497083427, "timestamp": "2025-12-19T04:59:47.033526+00:00", "meta": {"OBJECT_NAME": "STARLINK-36148", "OBJECT_ID": "2025-293C", "EPOCH": "2025-12-18T22:00:00.999936", "MEAN_MOTION": 15.94946407, "ECCENTRICITY": 0.00039459, "INCLINATION": 69.9952, "RA_OF_ASC_NODE": 305.8698, "ARG_OF_PERICENTER": 268.0466, "MEAN_ANOMALY": 214.5022, "EPHEMERIS_TYPE": 0, "CLASSIFICATION_TYPE": "U", "NORAD_CAT_ID": 67005, "ELEMENT_SET_NO": 999, "REV_AT_EPOCH": 130, "BSTAR": -0.0029152411, "MEAN_MOTION_DOT": -0.01128434, "MEAN_MOTION_DDOT": 0.00038927385}, "tle": {"line1": "1 67005U 25293C   25352.91667824 -.01128434  38927-3 -29152-2 0  9997", "line2": "2 67005  69.9952 305.8698 0003945 268.0466 214.5022 15.94946407  1301"}}, "geometry": {"type": "Point", "coordinates": [-56.565023109231085, -4.341936919812826]}}, {"type": "Feature", "properties": {"norad_id": 67006, "name": "STARLINK-36156", "group": "last-30-days", "lat": 0.14198178861636626, "lon": -54.93480523750761, "alt_km": 292.65961590182906, "timestamp": "2025-12-19T04:59:47.033536+00:00", "meta": {"OBJECT_NAME": "STARLINK-36156", "OBJECT_ID": "2025-293D", "EPOCH": "2025-12-18T22:00:00.999936", "MEAN_MOTION": 15.95083363, "ECCENTRICITY": 0.00039508, "INCLINATION": 69.9951, "RA_OF_ASC_NODE": 305.8633, "ARG_OF_PERICENTER": 266.5243, "MEAN_ANOMALY": 220.6554, "EPHEMERIS_TYPE": 0, "CLASSIFICATION_TYPE": "U", "NORAD_CAT_ID": 67006, "ELEMENT_SET_NO": 999, "REV_AT_EPOCH": 130, "BSTAR": -0.0029135626, "MEAN_MOTION_DOT": -0.01135999, "MEAN_MOTION_DDOT": 0.00039466211}, "tle": {"line1": "1 67006U 25293D   25352.91667824 -.01135999  39466-3 -29136-2 0  9993", "line2": "2 67006  69.9951 305.8633 0003950 266.5243 220.6554 15.95083363  1304"}}, "geometry": {"type": "Point", "coordinates": [-54.93480523750761, 0.14198178861636626]}}, {"type": "Feature", "properties": {"norad_id": 67007, "name": "STARLINK-36123", "group": "last-30-days", "lat": -1.88271175306377, "lon": -55.67020285300955, "alt_km": 293.0037660015105, "timestamp": "2025-12-19T04:59:47.033546+00:00", "meta": {"OBJECT_NAME": "STARLINK-36123", "OBJECT_ID": "2025-293E", "EPOCH": "2025-12-18T22:00:00.999936", "MEAN_MOTION": 15.95019728, "ECCENTRICITY": 0.00039151, "INCLINATION": 69.9946, "RA_OF_ASC_NODE": 305.8658, "ARG_OF_PERICENTER": 266.2589, "MEAN_ANOMALY": 218.8316, "EPHEMERIS_TYPE": 0, "CLASSIFICATION_TYPE": "U", "NORAD_CAT_ID": 67007, "ELEMENT_SET_NO": 999, "REV_AT_EPOCH": 130, "BSTAR": -0.0029091517, "MEAN_MOTION_DOT": -0.01130463, "MEAN_MOTION_DDOT": 0.00039086324}, "tle": {"line1": "1 67007U 25293E   25352.91667824 -.01130463  39086-3 -29092-2 0  9994", "line2": "2 67007  69.9946 305.8658 0003915 266.2589 218.8316 15.95019728  1306"}}, "geometry": {"type": "Point", "coordinates": [-55.67020285300955, -1.88271175306377]}}]}